[ {"name": "STARLINK-3854", "line1": "1 52648U 22052BC  26109.19288797 -.00000391  00000+0 -64921-5 0  9996", "line2": "2 52648  53.2177  77.2918 0001439  88.2132 271.9025 15.08837864217249"}, {"name": "STARLINK-3868", "line1": "1 52649U 22052BD  26109.16711205  .00000732  00000+0  64041-4 0  9998", "line2": "2 52649  53.2166  77.2613 0001263  83.0959 277.0177 15.08840950217251"}, {"name": "STARLINK-3891", "line1": "1 52650U 22052BE  26109.59862527  .00000397  00000+0  43024-4 0  9996", "line2": "2 52650  53.2176  65.5799 0001616  85.1988 274.9188 15.08837929217458"}, {"name": "STARLINK-4004", "line1": "1 52656U 22053A   26109.03237731  .00002690  00000+0  18699-3 0  9992", "line2": "2 52656  53.2163 333.0220 0001556  85.8286 274.2884 15.08848559217203"}, {"name": "STARLINK-4084", "line1": "1 52657U 22053B   26109.33418358  .00000881  00000+0  73440-4 0  9998", "line2": "2 52657  53.2180 331.9791 0001572  86.2508 273.8664 15.08840729217542"}, {"name": "STARLINK-4082", "line1": "1 52658U 22053C   26109.03510628 -.00000014  00000+0  17198-4 0  9996", "line2": "2 52658  53.2185 333.0030 0001391  89.8956 270.2195 15.08841153217320"}, {"name": "STARLINK-3960", "line1": "1 52659U 22053D   26108.89893478 -.00002025  00000+0 -10914-3 0  9990", "line2": "2 52659  53.2181 333.5635 0001320  83.7019 276.4124 15.08855916217296"}, {"name": "STARLINK-4081", "line1": "1 52660U 22053E   26108.89526687  .00000464  00000+0  47239-4 0  9991", "line2": "2 52660  53.2192 333.6304 0001389  88.2143 271.9008 15.08842844217182"}, {"name": "STARLINK-4044", "line1": "1 52662U 22053G   26109.34790587  .00000414  00000+0  44104-4 0  9999", "line2": "2 52662  53.2183 331.6011 0001350  86.9735 273.1412 15.08844769217188"}, {"name": "STARLINK-4037", "line1": "1 52663U 22053H   26109.60919160 -.00002100  00000+0 -11383-3 0  9997", "line2": "2 52663  53.2181 330.4284 0001401  95.2213 264.8939 15.08851608217223"}, {"name": "STARLINK-4070", "line1": "1 52664U 22053J   26109.61654712 -.00001950  00000+0 -10445-3 0  9998", "line2": "2 52664  53.2177 330.3935 0001424  87.2310 272.8845 15.08850140217220"}, {"name": "STARLINK-4064", "line1": "1 52665U 22053K   26109.33318740  .00000895  00000+0  74323-4 0  9997", "line2": "2 52665  53.2178 331.6653 0001371  85.3479 274.7670 15.08843002217180"}, {"name": "STARLINK-4079", "line1": "1 52666U 22053L   26109.30370549 -.00000315  00000+0 -17175-5 0  9992", "line2": "2 52666  53.2175 331.4104 0001728  84.2733 275.8456 15.08838092217181"}, {"name": "STARLINK-4076", "line1": "1 52667U 22053M   26109.32951339 -.00000489  00000+0 -12598-4 0  9992", "line2": "2 52667  53.2212 331.6785 0001888  82.7362 277.3845 15.08841104217186"}, {"name": "STARLINK-4067", "line1": "1 52668U 22053N   26109.60183279  .00000633  00000+0  57886-4 0  9992", "line2": "2 52668  53.2163 330.4603 0001520  90.2994 269.8173 15.08836670217223"}, {"name": "STARLINK-3972", "line1": "1 52669U 22053P   26108.92102941  .00000294  00000+0  36592-4 0  9998", "line2": "2 52669  53.2193 333.5156 0001562  91.6202 268.4969 15.08837173217112"}, {"name": "STARLINK-4075", "line1": "1 52670U 22053Q   26109.60553115  .00001406  00000+0  10640-3 0  9990", "line2": "2 52670  53.2181 330.5110 0001386  89.7604 270.3547 15.08850769217228"}, {"name": "STARLINK-4071", "line1": "1 52671U 22053R   26109.31479116  .00000090  00000+0  23712-4 0  9990", "line2": "2 52671  53.2179 331.7471 0001275  88.4794 271.6344 15.08837364217171"}, {"name": "STARLINK-4073", "line1": "1 52672U 22053S   26108.99460986  .00002184  00000+0  15518-3 0  9999", "line2": "2 52672  53.2182 333.1825 0001292  79.0814 281.0323 15.08853636217120"}, {"name": "STARLINK-3976", "line1": "1 52673U 22053T   26109.30742547  .00000707  00000+0  62520-4 0  9997", "line2": "2 52673  53.2187 331.7795 0001382  88.6620 271.4531 15.08841736217174"}, {"name": "STARLINK-3936", "line1": "1 52674U 22053U   26109.58335648  .00067407  00000+0  31430-2 0  9992", "line2": "2 52674  53.2182 329.6160 0000794  81.4484  20.6039 15.19270019  5799"}, {"name": "STARLINK-3934", "line1": "1 52675U 22053V   26109.56963749  .00000121  00000+0  25693-4 0  9996", "line2": "2 52675  53.2187 320.6042 0001561  87.4909 272.6262 15.08842881217349"}, {"name": "STARLINK-4006", "line1": "1 52676U 22053W   26109.31110850  .00000018  00000+0  19194-4 0  9991", "line2": "2 52676  53.2159 331.7628 0001349  84.4195 275.6951 15.08841700217178"}, {"name": "STARLINK-4074", "line1": "1 52678U 22053Y   26109.58071404 -.00003166  00000+0 -18102-3 0  9999", "line2": "2 52678  53.2178 320.6615 0001556  93.2039 266.9131 15.08812070217349"}, {"name": "STARLINK-4031", "line1": "1 52679U 22053Z   26109.28627166  .00000264  00000+0  34671-4 0  9993", "line2": "2 52679  53.2187 321.8768 0001690 104.1904 255.9276 15.08838644217268"}, {"name": "STARLINK-3774", "line1": "1 52680U 22053AA  26109.61008231 -.00001756  00000+0 -92225-4 0  9996", "line2": "2 52680  53.2205 320.1895 0001928  82.7352 277.3859 15.08843124217338"}, {"name": "STARLINK-4068", "line1": "1 52681U 22053AB  26109.61379153 -.00000278  00000+0  62888-6 0  9992", "line2": "2 52681  53.2206 320.4059 0001590  91.0479 269.0695 15.08840862217313"}, {"name": "STARLINK-4017", "line1": "1 52682U 22053AC  26109.55859391 -.00000373  00000+0 -53475-5 0  9991", "line2": "2 52682  53.2190 320.6535 0001289  88.1313 271.9827 15.08832937217320"}, {"name": "STARLINK-4014", "line1": "1 52684U 22053AE  26109.28994890  .00000923  00000+0  76054-4 0  9993", "line2": "2 52684  53.2182 321.8601 0001443  88.4745 271.6413 15.08841364217269"}, {"name": "STARLINK-4029", "line1": "1 52685U 22053AF  26109.00290756 -.00000484  00000+0 -12353-4 0  9990", "line2": "2 52685  53.2173 323.1480 0001188  96.4683 263.6444 15.08846116217205"}, {"name": "STARLINK-4005", "line1": "1 52686U 22053AG  26109.57062323 -.00000054  00000+0  14711-4 0  9992", "line2": "2 52686  53.2154 320.8765 0001349  85.6534 274.4613 15.08834635217299"}, {"name": "STARLINK-3981", "line1": "1 52687U 22053AH  26108.99922756  .00001084  00000+0  86168-4 0  9991", "line2": "2 52687  53.2165 323.1641 0001503  98.4740 261.6423 15.08841056217207"}, {"name": "STARLINK-4032", "line1": "1 52688U 22053AJ  26109.39297640  .00000960  00000+0  78402-4 0  9998", "line2": "2 52688  53.2169 321.2783 0001289 125.0031 235.1082 15.08849941217263"}, {"name": "STARLINK-4078", "line1": "1 52689U 22053AK  26109.08661619  .00091775  00000+0  10909-2 0  9996", "line2": "2 52689  53.2090 248.5597 0002362 291.9988  68.0776 15.60421076218300"}, {"name": "STARLINK-4035", "line1": "1 52690U 22053AL  26109.60275138 -.00000522  00000+0 -14702-4 0  9992", "line2": "2 52690  53.2163 320.4522 0001380  91.6084 268.5067 15.08836953217295"}, {"name": "STARLINK-3993", "line1": "1 52692U 22053AN  26109.30095142 -.00003581  00000+0 -20689-3 0  9994", "line2": "2 52692  53.2173 321.5396 0001293  93.8435 266.2705 15.08861785217280"}, {"name": "STARLINK-3946", "line1": "1 52693U 22053AP  26109.30835369  .00001306  00000+0  10015-3 0  9991", "line2": "2 52693  53.2165 321.7769 0001643 102.4174 257.7002 15.08835870217285"}, {"name": "STARLINK-4072", "line1": "1 52694U 22053AQ  26108.99187269  .00000954  00000+0  78018-4 0  9991", "line2": "2 52694  53.2171 323.1995 0001352  93.3695 266.7452 15.08842840217232"}, {"name": "STARLINK-4041", "line1": "1 52695U 22053AR  26108.89754129  .00000104  00000+0  24596-4 0  9995", "line2": "2 52695  53.2187 328.4165 0001360  89.8530 270.2619 15.08839891217163"}, {"name": "STARLINK-4018", "line1": "1 52697U 22053AT  26109.58668638 -.00002451  00000+0 -13598-3 0  9991", "line2": "2 52697  53.2156 325.5262 0001538  89.5430 270.5738 15.08840461217261"}, {"name": "STARLINK-4030", "line1": "1 52698U 22053AU  26109.33181138  .00000439  00000+0  45662-4 0  9990", "line2": "2 52698  53.2171 326.6639 0001669  90.4975 269.6208 15.08838362217212"}, {"name": "STARLINK-3987", "line1": "1 52699U 22053AV  26109.31065030  .00000939  00000+0  77081-4 0  9996", "line2": "2 52699  53.2213 316.7952 0001245 102.8181 257.2950 15.08842766217372"}, {"name": "STARLINK-4034", "line1": "1 52700U 22053AW  26109.62248640  .00000435  00000+0  45424-4 0  9990", "line2": "2 52700  53.2181 325.0079 0001646  82.0089 278.1090 15.08850398217279"}, {"name": "STARLINK-4033", "line1": "1 52702U 22053AY  26108.98956476  .00000690  00000+0  61451-4 0  9994", "line2": "2 52702  53.2174 328.2380 0001427 105.4390 254.6760 15.08845209217172"}, {"name": "STARLINK-4020", "line1": "1 52703U 22053AZ  26109.54479498  .00000582  00000+0  54633-4 0  9996", "line2": "2 52703  53.2171 310.7287 0001664  93.0413 267.0770 15.08838494216203"}, {"name": "STARLINK-3999", "line1": "1 52704U 22053BA  26109.29454525  .00002372  00000+0  16708-3 0  9992", "line2": "2 52704  53.2200 311.8389 0000962 100.0259 260.0841 15.08837553217443"}, {"name": "STARLINK-3844", "line1": "1 52705U 22053BB  26109.28351193  .00000824  00000+0  69876-4 0  9994", "line2": "2 52705  53.2180 311.8870 0001237  83.6340 276.4793 15.08838327217446"}, {"name": "STARLINK-3970", "line1": "1 52706U 22053BC  26109.55215176  .00000062  00000+0  21962-4 0  9993", "line2": "2 52706  53.2180 310.6824 0000240  78.1561 281.9458 15.08841291217487"}, {"name": "STARLINK-4007", "line1": "1 52707U 22053BD  26109.53004849  .00000469  00000+0  47553-4 0  9990", "line2": "2 52707  53.2179 310.6652 0001401  89.7805 270.3347 15.08844049217544"}, {"name": "STARLINK-3962", "line1": "1 52708U 22053BE  26108.97806472  .00000349  00000+0  39990-4 0  9993", "line2": "2 52708  53.2182 313.2468 0001528  93.0184 267.0983 15.08843323217601"}, {"name": "STARLINK-4091", "line1": "1 52830U 22062A   26109.25592850  .00000633  00000+0  57862-4 0  9997", "line2": "2 52830  53.2171 212.2040 0000821  70.3540 289.7540 15.08838605211902"}, {"name": "STARLINK-4089", "line1": "1 52831U 22062B   26109.57974162  .00001249  00000+0  96506-4 0  9995", "line2": "2 52831  53.2177 210.5560 0001225  89.0602 271.0531 15.08845764211955"}]